[{"OBJECT_NAME":"GHGSAT-C4","OBJECT_ID":"2022-057Q","EPOCH":"2026-03-09T22:58:28.655904","MEAN_MOTION":15.3293316,"ECCENTRICITY":0.0007552,"INCLINATION":97.6357,"RA_OF_ASC_NODE":210.0193,"ARG_OF_PERICENTER":100.0033,"MEAN_ANOMALY":260.2061,"EPHEMERIS_TYPE":0,"CLASSIFICATION_TYPE":"U","NORAD_CAT_ID":52746,"ELEMENT_SET_NO":999,"REV_AT_EPOCH":21033,"BSTAR":0.00030289005,"MEAN_MOTION_DOT":9.562e-5,"MEAN_MOTION_DDOT":0},{"OBJECT_NAME":"STARLINK-34420","OBJECT_ID":"2025-133M","EPOCH":"2026-03-09T10:12:32.069088","MEAN_MOTION":15.30191434,"ECCENTRICITY":0.00011905,"INCLINATION":53.1574,"RA_OF_ASC_NODE":117.6231,"ARG_OF_PERICENTER":87.5996,"MEAN_ANOMALY":272.5141,"EPHEMERIS_TYPE":0,"CLASSIFICATION_TYPE":"U","NORAD_CAT_ID":64483,"ELEMENT_SET_NO":999,"REV_AT_EPOCH":4115,"BSTAR":0.0010514867,"MEAN_MOTION_DOT":0.00030904,"MEAN_MOTION_DDOT":0}]
